OBJECT_NAME,OBJECT_ID,EPOCH,MEAN_MOTION,ECCENTRICITY,INCLINATION,RA_OF_ASC_NODE,ARG_OF_PERICENTER,MEAN_ANOMALY,EPHEMERIS_TYPE,CLASSIFICATION_TYPE,NORAD_CAT_ID,ELEMENT_SET_NO,REV_AT_EPOCH,BSTAR,MEAN_MOTION_DOT,MEAN_MOTION_DDOT
HST,1990-037B,2026-07-07T10:01:18.951744,15.31001847,.0001901,28.4735,302.2866,28.7045,331.3656,0,U,20580,999,79167,.15863E-3,.5122E-4,0
POLAR,1996-013A,2026-07-07T01:30:59.229792,1.29846098,.6490474,79.8793,226.8164,208.3961,91.1712,0,U,23802,999,14511,0,.202E-5,0
SWAS,1998-071A,2026-07-07T11:44:56.567040,15.09718440,.0008163,69.8940,175.1581,238.7721,121.2643,0,U,25560,999,50033,.12092E-3,.1849E-4,0
CXO,1999-040B,2026-07-09T12:48:11.617920,0.37804829,.780647,56.4882,116.0417,310.0470,0.4589,0,U,25867,999,1740,0,.72E-5,0
XMM-NEWTON,1999-066A,2026-07-08T07:00:51.149088,0.50122523,.46703572,64.3787,282.7174,64.5370,0.0317,0,U,25989,999,2311,0,.112E-5,0
TERRA,1999-068A,2026-07-07T12:10:26.026752,14.61119538,.0003046,97.9444,237.2467,138.1285,354.4816,0,U,25994,999,41257,.74049E-4,.32E-5,0
CLUSTER II-FM7 (SAMBA),2000-041A,2026-07-09T10:47:07.793664,0.44874124,.9081563,149.8605,54.9301,272.3489,359.6364,0,U,26410,999,2041,0,.10356E-3,0
CLUSTER II-FM8 (TANGO),2000-045B,2026-07-05T10:45:13.845888,0.44420952,.9082146,150.0908,55.3344,272.5670,2.3329,0,U,26464,999,2039,0,.7114E-4,0
ODIN,2001-007A,2026-07-06T23:37:23.539008,15.85006600,.0005299,97.3761,230.3091,141.5779,218.5869,0,U,26702,999,39252,.10929E-2,.262243E-2,0
TIMED,2001-055B,2026-07-07T00:18:00.586656,14.95332579,.0002002,74.0660,195.0990,309.1711,50.9295,0,U,26998,999,33378,.90752E-4,.961E-5,0
CORIOLIS,2003-001A,2026-07-06T22:15:24.486336,14.19950145,.001456,98.7129,194.5108,151.8272,208.3695,0,U,27640,999,21702,.57983E-4,.8E-6,0
SORCE,2003-004A,2026-07-07T07:53:17.426688,15.03813908,.0017916,39.9895,146.7523,200.9270,159.0792,0,U,27651,999,27493,.17465E-3,.2299E-4,0
MOST,2003-031D,2026-07-07T11:39:09.880128,14.21326656,.0009633,98.7048,195.9281,187.2312,172.8728,0,U,27843,999,19359,.43575E-4,.51E-6,0
SCISAT 1,2003-036A,2026-07-07T06:45:47.087136,14.81472266,.0007775,73.9300,131.4176,200.8409,159.2452,0,U,27858,999,23442,.8404E-4,.622E-5,0
SWIFT,2004-047A,2026-07-05T21:01:49.993248,15.70286946,.00008973,20.5532,40.5436,245.9890,114.0463,0,U,28485,999,18980,.47565052E-3,.61981E-3,0
HINODE (SOLAR-B),2006-041A,2026-07-07T11:43:26.389632,14.68651378,.0016467,98.0547,204.3417,219.8369,140.1629,0,U,29479,999,5785,.11006E-3,.592E-5,0
SHIJIAN-6 02A (SJ-6 02A),2006-046A,2026-07-07T11:20:57.696864,15.17189633,.0004631,97.6346,229.6938,79.7191,280.4563,0,U,29505,999,7534,.29849E-3,.5863E-4,0
SHIJIAN-6 02B (SJ-6 02B),2006-046B,2026-07-07T11:21:41.766048,15.01429973,.0014376,97.7150,217.4069,1.6796,358.4474,0,U,29506,999,7378,.12661E-3,.1576E-4,0
FGRST (GLAST),2008-029A,2026-07-07T01:37:49.369728,15.24044403,.0007938,25.5824,66.4278,198.7126,161.3121,0,U,33053,999,99887,.10499E-3,.2959E-4,0
SDO,2010-005A,2026-07-07T06:00:06.099840,1.00269725,.0001653,34.6901,86.0392,55.2327,131.6689,0,U,36395,999,6026,0,-.76E-6,0
CRYOSAT 2,2010-013A,2026-07-07T13:13:08.622336,14.51896512,.0002276,92.0359,282.2521,97.6187,262.5278,0,U,36508,999,86103,.3393E-4,.14E-5,0
X-SAT,2011-015C,2026-07-07T12:21:21.615264,14.25212086,.001283,98.3525,164.5708,285.9354,74.0412,0,U,37389,999,79057,.98356E-5,-.18E-6,0
GCOM-W1 (SHIZUKU),2012-025A,2026-07-07T07:25:00.501312,14.57143633,.0001419,98.2023,128.5605,65.4495,95.5099,0,U,38337,999,75196,.98816E-4,.4E-5,0
NUSTAR,2012-031A,2026-07-07T14:00:01.999008,15.08994824,.0006799,6.0263,241.1309,49.9101,254.1792,0,U,38358,999,130,.9138E-3,.1578E-3,0
NEOSSAT,2013-009D,2026-07-07T11:43:05.163744,14.35833637,.0010952,98.4186,8.0389,179.6974,180.4221,0,U,39089,999,69965,.59671E-4,.13E-5,0
BRITE-AUSTRIA,2013-009F,2026-07-07T11:26:33.335808,14.36550284,.0010287,98.4005,7.4112,172.8731,187.2604,0,U,39091,999,69996,.62513E-4,.141E-5,0
IRIS,2013-033A,2026-07-07T12:02:20.452704,14.85926207,.0022992,97.9322,27.7147,251.6485,108.2229,0,U,39197,999,70339,.10608E-3,.873E-5,0
HISAKI (SPRINT-A),2013-049A,2026-07-07T05:38:07.994400,13.55546243,.0136917,29.7191,118.0835,179.3845,180.6910,0,U,39253,999,63414,.46679E-4,.101E-5,0
CASSIOPE,2013-055A,2026-07-07T11:41:12.759936,15.27023821,.0284916,80.9130,42.0335,354.0396,5.7464,0,U,39265,999,67076,.32921E-3,.30648E-3,-.50902E-6
STSAT-3,2013-066G,2026-07-07T11:41:48.506208,15.02864415,.0009095,97.6205,158.0492,337.4038,22.6786,0,U,39422,999,68725,.1198E-3,.1547E-4,0
SWARM B,2013-067A,2026-07-07T11:50:18.260160,15.28683347,.000261,87.7455,336.1474,79.9809,280.1734,0,U,39451,999,68634,.10112E-3,.2854E-4,0
